{
  "type": "FeatureCollection",
  "features": [
    {
      "type": "Feature",
      "properties": {
        "norad_id": 66590,
        "name": "STARLINK-35429",
        "group": "last-30-days",
        "lat": -19.752214671313396,
        "lon": 86.97476393710937,
        "alt_km": 444.5880760718219,
        "timestamp": "2025-12-27T02:10:14.905520+00:00",
        "meta_object_name": "STARLINK-35429",
        "meta_object_id": "2025-270C",
        "meta_epoch": "2025-12-25T17:37:41.590560",
        "meta_mean_motion": 15.40721997,
        "meta_eccentricity": 0.0001639,
        "meta_inclination": 43.002,
        "meta_ra_of_asc_node": 117.4547,
        "meta_arg_of_pericenter": 273.6487,
        "meta_mean_anomaly": 86.4182,
        "meta_ephemeris_type": 0,
        "meta_classification_type": "U",
        "meta_norad_cat_id": 66590,
        "meta_element_set_no": 999,
        "meta_rev_at_epoch": 646,
        "meta_bstar": 0.001733211,
        "meta_mean_motion_dot": 0.00072845,
        "meta_mean_motion_ddot": 0,
        "tle_line1": "1 66590U 25270C   25359.73450915  .00072845  00000+0  17332-2 0  9993",
        "tle_line2": "2 66590  43.0020 117.4547 0001639 273.6487  86.4182 15.40721997  6462"
      },
      "geometry": {
        "type": "Point",
        "coordinates": [
          86.97476393710937,
          -19.752214671313396
        ]
      }
    },
    {
      "type": "Feature",
      "properties": {
        "norad_id": 66591,
        "name": "STARLINK-36058",
        "group": "last-30-days",
        "lat": 34.83989686551131,
        "lon": 157.74675243307158,
        "alt_km": 439.41569020923,
        "timestamp": "2025-12-27T02:10:14.905531+00:00",
        "meta_object_name": "STARLINK-36058",
        "meta_object_id": "2025-270D",
        "meta_epoch": "2025-12-26T15:02:03.164064",
        "meta_mean_motion": 15.40738813,
        "meta_eccentricity": 0.0002694,
        "meta_inclination": 43.0054,
        "meta_ra_of_asc_node": 112.1064,
        "meta_arg_of_pericenter": 284.3087,
        "meta_mean_anomaly": 75.747,
        "meta_ephemeris_type": 0,
        "meta_classification_type": "U",
        "meta_norad_cat_id": 66591,
        "meta_element_set_no": 999,
        "meta_rev_at_epoch": 649,
        "meta_bstar": 0.001161,
        "meta_mean_motion_dot": 0.0004857,
        "meta_mean_motion_ddot": 0,
        "tle_line1": "1 66591U 25270D   25360.62642551  .00048570  00000+0  11610-2 0  9994",
        "tle_line2": "2 66591  43.0054 112.1064 0002694 284.3087  75.7470 15.40738813  6492"
      },
      "geometry": {
        "type": "Point",
        "coordinates": [
          157.74675243307158,
          34.83989686551131
        ]
      }
    },
    {
      "type": "Feature",
      "properties": {
        "norad_id": 66592,
        "name": "STARLINK-36066",
        "group": "last-30-days",
        "lat": -8.979109863761082,
        "lon": -60.26688436302122,
        "alt_km": 444.3085002690632,
        "timestamp": "2025-12-27T02:10:14.905541+00:00",
        "meta_object_name": "STARLINK-36066",
        "meta_object_id": "2025-270E",
        "meta_epoch": "2025-12-26T08:13:21.289728",
        "meta_mean_motion": 15.40749213,
        "meta_eccentricity": 0.0001723,
        "meta_inclination": 43.0012,
        "meta_ra_of_asc_node": 114.282,
        "meta_arg_of_pericenter": 268.5662,
        "meta_mean_anomaly": 91.4997,
        "meta_ephemeris_type": 0,
        "meta_classification_type": "U",
        "meta_norad_cat_id": 66592,
        "meta_element_set_no": 999,
        "meta_rev_at_epoch": 634,
        "meta_bstar": 0.0013745,
        "meta_mean_motion_dot": 0.00057643,
        "meta_mean_motion_ddot": 0,
        "tle_line1": "1 66592U 25270E   25360.34260752  .00057643  00000+0  13745-2 0  9995",
        "tle_line2": "2 66592  43.0012 114.2820 0001723 268.5662  91.4997 15.40749213  6344"
      },
      "geometry": {
        "type": "Point",
        "coordinates": [
          -60.26688436302122,
          -8.979109863761082
        ]
      }
    },
    {
      "type": "Feature",
      "properties": {
        "norad_id": 66593,
        "name": "STARLINK-36031",
        "group": "last-30-days",
        "lat": -42.174628129125495,
        "lon": 33.31044695420967,
        "alt_km": 447.6847037280522,
        "timestamp": "2025-12-27T02:10:14.905551+00:00",
        "meta_object_name": "STARLINK-36031",
        "meta_object_id": "2025-270F",
        "meta_epoch": "2025-12-26T17:10:54.852960",
        "meta_mean_motion": 15.40744951,
        "meta_eccentricity": 0.0001766,
        "meta_inclination": 43.0007,
        "meta_ra_of_asc_node": 111.9193,
        "meta_arg_of_pericenter": 34.9432,
        "meta_mean_anomaly": 325.154,
        "meta_ephemeris_type": 0,
        "meta_classification_type": "U",
        "meta_norad_cat_id": 66593,
        "meta_element_set_no": 999,
        "meta_rev_at_epoch": 650,
        "meta_bstar": 0.0012376,
        "meta_mean_motion_dot": 0.00051823,
        "meta_mean_motion_ddot": 0,
        "tle_line1": "1 66593U 25270F   25360.71591265  .00051823  00000+0  12376-2 0  9996",
        "tle_line2": "2 66593  43.0007 111.9193 0001766  34.9432 325.1540 15.40744951  6506"
      },
      "geometry": {
        "type": "Point",
        "coordinates": [
          33.31044695420967,
          -42.174628129125495
        ]
      }
    },
    {
      "type": "Feature",
      "properties": {
        "norad_id": 66594,
        "name": "STARLINK-36032",
        "group": "last-30-days",
        "lat": 13.140974765038244,
        "lon": 124.0285807337268,
        "alt_km": 441.9903575991175,
        "timestamp": "2025-12-27T02:10:14.905561+00:00",
        "meta_object_name": "STARLINK-36032",
        "meta_object_id": "2025-270G",
        "meta_epoch": "2025-12-26T15:11:43.630368",
        "meta_mean_motion": 15.40675984,
        "meta_eccentricity": 0.0002447,
        "meta_inclination": 42.9999,
        "meta_ra_of_asc_node": 112.1553,
        "meta_arg_of_pericenter": 282.7997,
        "meta_mean_anomaly": 77.2586,
        "meta_ephemeris_type": 0,
        "meta_classification_type": "U",
        "meta_norad_cat_id": 66594,
        "meta_element_set_no": 999,
        "meta_rev_at_epoch": 630,
        "meta_bstar": 0.0012387,
        "meta_mean_motion_dot": 0.00051752,
        "meta_mean_motion_ddot": 0,
        "tle_line1": "1 66594U 25270G   25360.63314387  .00051752  00000+0  12387-2 0  9999",
        "tle_line2": "2 66594  42.9999 112.1553 0002447 282.7997  77.2586 15.40675984  6306"
      },
      "geometry": {
        "type": "Point",
        "coordinates": [
          124.0285807337268,
          13.140974765038244
        ]
      }
    },
    {
      "type": "Feature",
      "properties": {
        "norad_id": 66595,
        "name": "STARLINK-35711",
        "group": "last-30-days",
        "lat": 40.769899110243095,
        "lon": -138.4180288778267,
        "alt_km": 437.3971256902323,
        "timestamp": "2025-12-27T02:10:14.905574+00:00",
        "meta_object_name": "STARLINK-35711",
        "meta_object_id": "2025-270H",
        "meta_epoch": "2025-12-26T14:49:09.295680",
        "meta_mean_motion": 15.40706631,
        "meta_eccentricity": 2.88e-05,
        "meta_inclination": 42.9982,
        "meta_ra_of_asc_node": 112.0335,
        "meta_arg_of_pericenter": 200.2134,
        "meta_mean_anomaly": 159.8711,
        "meta_ephemeris_type": 0,
        "meta_classification_type": "U",
        "meta_norad_cat_id": 66595,
        "meta_element_set_no": 999,
        "meta_rev_at_epoch": 660,
        "meta_bstar": 0.0014088,
        "meta_mean_motion_dot": 0.00059014,
        "meta_mean_motion_ddot": 0,
        "tle_line1": "1 66595U 25270H   25360.61746870  .00059014  00000+0  14088-2 0  9993",
        "tle_line2": "2 66595  42.9982 112.0335 0000288 200.2134 159.8711 15.40706631  6609"
      },
      "geometry": {
        "type": "Point",
        "coordinates": [
          -138.4180288778267,
          40.769899110243095
        ]
      }
    },
    {
      "type": "Feature",
      "properties": {
        "norad_id": 66596,
        "name": "STARLINK-35811",
        "group": "last-30-days",
        "lat": 8.07598654157044,
        "lon": -78.72694734820718,
        "alt_km": 442.9293211458207,
        "timestamp": "2025-12-27T02:10:14.905585+00:00",
        "meta_object_name": "STARLINK-35811",
        "meta_object_id": "2025-270J",
        "meta_epoch": "2025-12-26T16:06:34.336800",
        "meta_mean_motion": 15.40660741,
        "meta_eccentricity": 8.22e-05,
        "meta_inclination": 42.9994,
        "meta_ra_of_asc_node": 112.4481,
        "meta_arg_of_pericenter": 285.2412,
        "meta_mean_anomaly": 74.8354,
        "meta_ephemeris_type": 0,
        "meta_classification_type": "U",
        "meta_norad_cat_id": 66596,
        "meta_element_set_no": 999,
        "meta_rev_at_epoch": 660,
        "meta_bstar": 0.0016365,
        "meta_mean_motion_dot": 0.00068584,
        "meta_mean_motion_ddot": 0,
        "tle_line1": "1 66596U 25270J   25360.67123075  .00068584  00000+0  16365-2 0  9998",
        "tle_line2": "2 66596  42.9994 112.4481 0000822 285.2412  74.8354 15.40660741  6605"
      },
      "geometry": {
        "type": "Point",
        "coordinates": [
          -78.72694734820718,
          8.07598654157044
        ]
      }
    }
  ]
}